[{"OBJECT_NAME":"STARLINK-30123","OBJECT_ID":"2023-079R","EPOCH":"2026-03-09T06:44:27.035808","MEAN_MOTION":15.2758213,"ECCENTRICITY":5.731e-5,"INCLINATION":43.0029,"RA_OF_ASC_NODE":36.2461,"ARG_OF_PERICENTER":244.6069,"MEAN_ANOMALY":115.4724,"EPHEMERIS_TYPE":0,"CLASSIFICATION_TYPE":"U","NORAD_CAT_ID":56838,"ELEMENT_SET_NO":999,"REV_AT_EPOCH":15368,"BSTAR":-6.6310662e-5,"MEAN_MOTION_DOT":-2.086e-5,"MEAN_MOTION_DDOT":0},{"OBJECT_NAME":"NUSAT-41 (C PAYNE-G)","OBJECT_ID":"2023-084N","EPOCH":"2026-03-09T21:55:54.837696","MEAN_MOTION":15.29680045,"ECCENTRICITY":0.00062175,"INCLINATION":97.5351,"RA_OF_ASC_NODE":204.1011,"ARG_OF_PERICENTER":322.2064,"MEAN_ANOMALY":37.8738,"EPHEMERIS_TYPE":0,"CLASSIFICATION_TYPE":"U","NORAD_CAT_ID":56944,"ELEMENT_SET_NO":999,"REV_AT_EPOCH":15260,"BSTAR":0.00059912824,"MEAN_MOTION_DOT":0.0001718,"MEAN_MOTION_DDOT":0}]
